*******************************************************************************
Ephemeris / WWW_USER Tue Mar 11 05:33:28 2025 Pasadena, USA      / Horizons    
*******************************************************************************
Target body name: (2018 WV1)                      {source: JPL#17}
Center body name: Earth (399)                     {source: DE441}
Center-site name: Gemini South Obs., Cerro Pachon
*******************************************************************************
Start time      : A.D. 2018-Aug-23 22:31:00.0000 UT      
Stop  time      : A.D. 2018-Aug-24 10:59:00.0000 UT      
Step-size       : 1 minutes
*******************************************************************************
Target pole/equ : undefined
Target radii    : undefined                                                    
Center geodetic : 289.2634, -30.2406227, 2.71233  {E-lon(deg),Lat(deg),Alt(km)}
Center cylindric: 289.2634,5517.21435,-3194.81213 {E-lon(deg),Dxy(km),Dz(km)}
Center pole/equ : ITRF93                          {East-longitude positive}
Center radii    : 6378.137, 6378.137, 6356.752 km {Equator_a, b, pole_c}       
Target primary  : Sun
Vis. interferer : MOON (R_eq= 1737.400) km        {source: DE441}
Rel. light bend : Sun                             {source: DE441}
Rel. lght bnd GM: 1.3271E+11 km^3/s^2                                          
Small-body perts: Yes                             {source: SB441-N16}
Atmos refraction: NO (AIRLESS)
RA format       : HMS
Time format     : CAL 
Calendar mode   : Mixed Julian/Gregorian
RTS-only print  : NO       
EOP file        : eop.250310.p250606                                           
EOP coverage    : DATA-BASED 1962-JAN-20 TO 2025-MAR-10. PREDICTS-> 2025-JUN-05
Units conversion: 1 au= 149597870.700 km, c= 299792.458 km/s, 1 day= 86400.0 s 
Table cut-offs 1: Elevation (-90.0deg=NO ),Airmass (>38.000=NO), Daylight (YES)
Table cut-offs 2: Solar elongation (  0.0,180.0=NO ),Local Hour Angle( 0.0=NO )
Table cut-offs 3: RA/DEC angular rate (     0.0=NO )                           
*******************************************************************************
Initial IAU76/J2000 heliocentric ecliptic osculating elements (au, days, deg.):
  EPOCH=  2458458.5 ! 2018-Dec-06.00 (TDB)         Residual RMS= .12928        
   EC= .06869100257422787  QR= .9715505345748198   TP= 2458416.866413563       
   OM= 248.5061090469913   W=  141.3742304527303   IN= 1.905403987972275       
  Equivalent ICRF heliocentric cartesian coordinates (au, au/d):
   X= 2.787163119783287E-01  Y= 8.719775267121872E-01  Z= 3.748421051204766E-01
  VX=-1.676682657337402E-02 VY= 5.516972965834891E-03 VZ= 1.749720915605096E-03
Asteroid physical parameters (km, seconds, rotational period in hours):        
   GM= n.a.                RAD= n.a.               ROTPER= n.a.                
   H= 30.3                 G= .150                 B-V= n.a.                   
                           ALBEDO= n.a.            STYP= n.a.                  
*******************************************************************************
 Date__(UT)__HR:MN     R.A._________(ICRF)_________DEC
******************************************************
$$SOE
 2018-Aug-24 08:46  m  01 14 43.674142 +11 41 08.08080
 2018-Aug-24 08:47  m  01 14 43.726678 +11 41 08.62626
 2018-Aug-24 08:48  m  01 14 43.779226 +11 41 09.17156
 2018-Aug-24 08:49  m  01 14 43.831788 +11 41 09.71670
 2018-Aug-24 08:50  m  01 14 43.884363 +11 41 10.26168
 2018-Aug-24 08:51  m  01 14 43.936951 +11 41 10.80651
 2018-Aug-24 08:52  m  01 14 43.989553 +11 41 11.35118
 2018-Aug-24 08:53  m  01 14 44.042168 +11 41 11.89569
 2018-Aug-24 08:54  m  01 14 44.094798 +11 41 12.44004
 2018-Aug-24 08:55  m  01 14 44.147442 +11 41 12.98424
 2018-Aug-24 08:56  m  01 14 44.200101 +11 41 13.52828
 2018-Aug-24 08:57  m  01 14 44.252774 +11 41 14.07217
 2018-Aug-24 08:58  m  01 14 44.305463 +11 41 14.61590
 2018-Aug-24 08:59  m  01 14 44.358167 +11 41 15.15947
 2018-Aug-24 09:00  m  01 14 44.410886 +11 41 15.70289
 2018-Aug-24 09:01  m  01 14 44.463621 +11 41 16.24615
 2018-Aug-24 09:02  m  01 14 44.516371 +11 41 16.78925
 2018-Aug-24 09:03  m  01 14 44.569138 +11 41 17.33221
 2018-Aug-24 09:04  m  01 14 44.621922 +11 41 17.87500
 2018-Aug-24 09:05  m  01 14 44.674721 +11 41 18.41764
 2018-Aug-24 09:06  m  01 14 44.727538 +11 41 18.96013
 2018-Aug-24 09:07  m  01 14 44.780372 +11 41 19.50246
 2018-Aug-24 09:08  m  01 14 44.833223 +11 41 20.04464
 2018-Aug-24 09:09  m  01 14 44.886091 +11 41 20.58667
 2018-Aug-24 09:10  m  01 14 44.938977 +11 41 21.12854
 2018-Aug-24 09:11  m  01 14 44.991881 +11 41 21.67026
 2018-Aug-24 09:12  m  01 14 45.044803 +11 41 22.21182
 2018-Aug-24 09:13  m  01 14 45.097743 +11 41 22.75323
 2018-Aug-24 09:14  m  01 14 45.150702 +11 41 23.29449
 2018-Aug-24 09:15  m  01 14 45.203680 +11 41 23.83560
 2018-Aug-24 09:16  m  01 14 45.256677 +11 41 24.37655
 2018-Aug-24 09:17  m  01 14 45.309693 +11 41 24.91736
 2018-Aug-24 09:18  m  01 14 45.362728 +11 41 25.45801
 2018-Aug-24 09:19  m  01 14 45.415783 +11 41 25.99851
 2018-Aug-24 09:20  m  01 14 45.468858 +11 41 26.53886
 2018-Aug-24 09:21  m  01 14 45.521953 +11 41 27.07906
 2018-Aug-24 09:22  m  01 14 45.575068 +11 41 27.61910
 2018-Aug-24 09:23  m  01 14 45.628204 +11 41 28.15900
 2018-Aug-24 09:24  m  01 14 45.681360 +11 41 28.69875
 2018-Aug-24 09:25  m  01 14 45.734538 +11 41 29.23835
 2018-Aug-24 09:26  m  01 14 45.787736 +11 41 29.77779
 2018-Aug-24 09:27  m  01 14 45.840956 +11 41 30.31709
 2018-Aug-24 09:28  m  01 14 45.894198 +11 41 30.85624
 2018-Aug-24 09:29  m  01 14 45.947461 +11 41 31.39524
 2018-Aug-24 09:30  m  01 14 46.000747 +11 41 31.93410
 2018-Aug-24 09:31  m  01 14 46.054054 +11 41 32.47280
 2018-Aug-24 09:32  m  01 14 46.107384 +11 41 33.01136
 2018-Aug-24 09:33  m  01 14 46.160737 +11 41 33.54977
 2018-Aug-24 09:34  m  01 14 46.214113 +11 41 34.08803
 2018-Aug-24 09:35  m  01 14 46.267511 +11 41 34.62615
 2018-Aug-24 09:36  m  01 14 46.320933 +11 41 35.16412
 2018-Aug-24 09:37  m  01 14 46.374379 +11 41 35.70194
 2018-Aug-24 09:38  m  01 14 46.427848 +11 41 36.23962
 2018-Aug-24 09:39  m  01 14 46.481341 +11 41 36.77715
 2018-Aug-24 09:40  m  01 14 46.534858 +11 41 37.31454
 2018-Aug-24 09:41  m  01 14 46.588400 +11 41 37.85178
 2018-Aug-24 09:42  m  01 14 46.641966 +11 41 38.38887
 2018-Aug-24 09:43  m  01 14 46.695557 +11 41 38.92583
 2018-Aug-24 09:44  m  01 14 46.749173 +11 41 39.46263
 2018-Aug-24 09:45  m  01 14 46.802813 +11 41 39.99930
 2018-Aug-24 09:46  m  01 14 46.856480 +11 41 40.53582
 2018-Aug-24 09:47  m  01 14 46.910172 +11 41 41.07220
 2018-Aug-24 09:48 Am  01 14 46.963889 +11 41 41.60843
 2018-Aug-24 09:49 Am  01 14 47.017633 +11 41 42.14453
 2018-Aug-24 09:50 Am  01 14 47.071403 +11 41 42.68048
 2018-Aug-24 09:51 Am  01 14 47.125199 +11 41 43.21629
 2018-Aug-24 09:52 Am  01 14 47.179022 +11 41 43.75196
 2018-Aug-24 09:53 Am  01 14 47.232871 +11 41 44.28748
 2018-Aug-24 09:54 Am  01 14 47.286748 +11 41 44.82287
 2018-Aug-24 09:55 Am  01 14 47.340651 +11 41 45.35812
 2018-Aug-24 09:56 Am  01 14 47.394583 +11 41 45.89323
 2018-Aug-24 09:57 Am  01 14 47.448541 +11 41 46.42819
 2018-Aug-24 09:58 Am  01 14 47.502528 +11 41 46.96302
 2018-Aug-24 09:59 Am  01 14 47.556542 +11 41 47.49771
 2018-Aug-24 10:00 Am  01 14 47.610585 +11 41 48.03226
 2018-Aug-24 10:01 Am  01 14 47.664656 +11 41 48.56668
 2018-Aug-24 10:02 Am  01 14 47.718756 +11 41 49.10095
 2018-Aug-24 10:03 Am  01 14 47.772884 +11 41 49.63509
 2018-Aug-24 10:04 Am  01 14 47.827042 +11 41 50.16909
 2018-Aug-24 10:05 Am  01 14 47.881229 +11 41 50.70296
 2018-Aug-24 10:06 Am  01 14 47.935445 +11 41 51.23669
 2018-Aug-24 10:07 Am  01 14 47.989690 +11 41 51.77028
 2018-Aug-24 10:08 Am  01 14 48.043966 +11 41 52.30374
 2018-Aug-24 10:09 A   01 14 48.098271 +11 41 52.83706
 2018-Aug-24 10:10 A   01 14 48.152606 +11 41 53.37025
 2018-Aug-24 10:11 A   01 14 48.206972 +11 41 53.90330
 2018-Aug-24 10:12 A   01 14 48.261368 +11 41 54.43622
 2018-Aug-24 10:13 A   01 14 48.315796 +11 41 54.96901
 2018-Aug-24 10:14 A   01 14 48.370253 +11 41 55.50167
 2018-Aug-24 10:15 A   01 14 48.424743 +11 41 56.03419
 2018-Aug-24 10:16 N   01 14 48.479263 +11 41 56.56658
 2018-Aug-24 10:17 N   01 14 48.533815 +11 41 57.09884
 2018-Aug-24 10:18 N   01 14 48.588398 +11 41 57.63096
 2018-Aug-24 10:19 N   01 14 48.643014 +11 41 58.16296
 2018-Aug-24 10:20 N   01 14 48.697661 +11 41 58.69482
 2018-Aug-24 10:21 N   01 14 48.752341 +11 41 59.22656
 2018-Aug-24 10:22 N   01 14 48.807053 +11 41 59.75817
 2018-Aug-24 10:23 N   01 14 48.861797 +11 42 00.28964
 2018-Aug-24 10:24 N   01 14 48.916575 +11 42 00.82099
 2018-Aug-24 10:25 N   01 14 48.971385 +11 42 01.35221
 2018-Aug-24 10:26 N   01 14 49.026229 +11 42 01.88330
 2018-Aug-24 10:27 N   01 14 49.081106 +11 42 02.41427
 2018-Aug-24 10:28 N   01 14 49.136016 +11 42 02.94511
 2018-Aug-24 10:29 N   01 14 49.190960 +11 42 03.47582
 2018-Aug-24 10:30 N   01 14 49.245938 +11 42 04.00640
 2018-Aug-24 10:31 N   01 14 49.300950 +11 42 04.53686
 2018-Aug-24 10:32 N   01 14 49.355997 +11 42 05.06720
 2018-Aug-24 10:33 N   01 14 49.411077 +11 42 05.59741
 2018-Aug-24 10:34 N   01 14 49.466193 +11 42 06.12749
 2018-Aug-24 10:35 N   01 14 49.521343 +11 42 06.65745
 2018-Aug-24 10:36 N   01 14 49.576528 +11 42 07.18729
 2018-Aug-24 10:37 N   01 14 49.631748 +11 42 07.71701
 2018-Aug-24 10:38 N   01 14 49.687003 +11 42 08.24660
 2018-Aug-24 10:39 N   01 14 49.742294 +11 42 08.77607
 2018-Aug-24 10:40 N   01 14 49.797621 +11 42 09.30542
 2018-Aug-24 10:41 N   01 14 49.852983 +11 42 09.83465
 2018-Aug-24 10:42 N   01 14 49.908382 +11 42 10.36376
 2018-Aug-24 10:43 N   01 14 49.963816 +11 42 10.89275
 2018-Aug-24 10:44 C   01 14 50.019287 +11 42 11.42162
 2018-Aug-24 10:45 C   01 14 50.074794 +11 42 11.95037
 2018-Aug-24 10:46 C   01 14 50.130339 +11 42 12.47900
 2018-Aug-24 10:47 C   01 14 50.185919 +11 42 13.00751
 2018-Aug-24 10:48 C   01 14 50.241537 +11 42 13.53590
